[{"OBJECT_NAME":"STARLINK-34788","OBJECT_ID":"2025-165A","EPOCH":"2026-03-09T17:05:35.739744","MEAN_MOTION":15.05663029,"ECCENTRICITY":2.103e-5,"INCLINATION":97.6021,"RA_OF_ASC_NODE":147.2462,"ARG_OF_PERICENTER":61.3467,"MEAN_ANOMALY":298.7781,"EPHEMERIS_TYPE":0,"CLASSIFICATION_TYPE":"U","NORAD_CAT_ID":65056,"ELEMENT_SET_NO":999,"REV_AT_EPOCH":3479,"BSTAR":0.00077069183,"MEAN_MOTION_DOT":0.00011081,"MEAN_MOTION_DDOT":0},{"OBJECT_NAME":"CZ-6A DEB","OBJECT_ID":"2024-140DH","EPOCH":"2026-03-09T14:42:58.375296","MEAN_MOTION":14.89586287,"ECCENTRICITY":0.0114118,"INCLINATION":89.149,"RA_OF_ASC_NODE":291.0293,"ARG_OF_PERICENTER":161.7952,"MEAN_ANOMALY":198.7416,"EPHEMERIS_TYPE":0,"CLASSIFICATION_TYPE":"U","NORAD_CAT_ID":60704,"ELEMENT_SET_NO":999,"REV_AT_EPOCH":8478,"BSTAR":0.0015025,"MEAN_MOTION_DOT":0.00016252,"MEAN_MOTION_DDOT":0}]
